{
  "type": "Feature",
  "properties": {
    "slug": "ham",
    "length_m": 4591.921133143377,
    "n_points": 228,
    "utm_epsg": 32610
  },
  "geometry": {
    "type": "LineString",
    "coordinates": [
      [
        -121.6441008,
        37.33725599999999
      ],
      [
        -121.6440202,
        37.33726159999999
      ],
      [
        -121.6439364,
        37.33731629999999
      ],
      [
        -121.64385589999999,
        37.337436200000006
      ],
      [
        -121.6437339,
        37.3378106
      ],
      [
        -121.6436677,
        37.33814559999999
      ],
      [
        -121.6436436,
        37.33846419999999
      ],
      [
        -121.64369269999999,
        37.3386305
      ],
      [
        -121.6437695,
        37.338780299999996
      ],
      [
        -121.6438308,
        37.33895929999999
      ],
      [
        -121.6438833,
        37.33939399999999
      ],
      [
        -121.64414630000002,
        37.3404992
      ],
      [
        -121.64414090000001,
        37.340816499999995
      ],
      [
        -121.6440961,
        37.3409739
      ],
      [
        -121.64386090000002,
        37.34145019999999
      ],
      [
        -121.64381590000002,
        37.34158469999999
      ],
      [
        -121.6438105,
        37.341678400000006
      ],
      [
        -121.6438371,
        37.3418646
      ],
      [
        -121.6438012,
        37.341952799999994
      ],
      [
        -121.6435179,
        37.3422772
      ],
      [
        -121.64343940000002,
        37.342332400000004
      ],
      [
        -121.6433073,
        37.3423334
      ],
      [
        -121.6428297,
        37.3422032
      ],
      [
        -121.6426116,
        37.342159499999994
      ],
      [
        -121.642121,
        37.3421034
      ],
      [
        -121.6412354,
        37.34195089999999
      ],
      [
        -121.6411123,
        37.3419442
      ],
      [
        -121.6408935,
        37.3419695
      ],
      [
        -121.64038280000001,
        37.3421119
      ],
      [
        -121.63983710000001,
        37.342354799999995
      ],
      [
        -121.63959010000002,
        37.3424145
      ],
      [
        -121.6392974,
        37.34243889999999
      ],
      [
        -121.6388816,
        37.342411000000006
      ],
      [
        -121.63877319999999,
        37.34238549999999
      ],
      [
        -121.6384508,
        37.34225740000001
      ],
      [
        -121.6382138,
        37.3422062
      ],
      [
        -121.6380188,
        37.34220609999999
      ],
      [
        -121.63791959999999,
        37.34224950000001
      ],
      [
        -121.63757969999999,
        37.34252459999999
      ],
      [
        -121.6374659,
        37.3425781
      ],
      [
        -121.63715129999999,
        37.3426582
      ],
      [
        -121.63692320000001,
        37.342790799999996
      ],
      [
        -121.63652060000001,
        37.343125699999995
      ],
      [
        -121.636362,
        37.34322960000001
      ],
      [
        -121.6361403,
        37.3432934
      ],
      [
        -121.63568200000002,
        37.3433496
      ],
      [
        -121.6355612,
        37.343394700000005
      ],
      [
        -121.63539330000002,
        37.3435229
      ],
      [
        -121.6351805,
        37.34365360000001
      ],
      [
        -121.63460949999998,
        37.3439053
      ],
      [
        -121.6344665,
        37.344018899999995
      ],
      [
        -121.6342004,
        37.344316699999986
      ],
      [
        -121.63401119999999,
        37.3444467
      ],
      [
        -121.63328219999998,
        37.344782900000006
      ],
      [
        -121.6329169,
        37.34490649999999
      ],
      [
        -121.63277509999999,
        37.34497319999999
      ],
      [
        -121.63260970000002,
        37.345104299999996
      ],
      [
        -121.63239049999999,
        37.34537159999999
      ],
      [
        -121.6322812,
        37.345439500000005
      ],
      [
        -121.63217170000001,
        37.345464500000006
      ],
      [
        -121.6320513,
        37.34547119999999
      ],
      [
        -121.63192999999998,
        37.3454487
      ],
      [
        -121.6318071,
        37.345396699999995
      ],
      [
        -121.63160440000001,
        37.345264799999995
      ],
      [
        -121.631516,
        37.3452381
      ],
      [
        -121.6314482,
        37.345239199999995
      ],
      [
        -121.6313792,
        37.34526170000001
      ],
      [
        -121.63130970000002,
        37.345307299999995
      ],
      [
        -121.6310663,
        37.34562840000001
      ],
      [
        -121.6309487,
        37.345741600000004
      ],
      [
        -121.6308097,
        37.3458324
      ],
      [
        -121.6304173,
        37.3459957
      ],
      [
        -121.630298,
        37.346033799999994
      ],
      [
        -121.63018380000001,
        37.346041699999994
      ],
      [
        -121.62984599999999,
        37.34599829999999
      ],
      [
        -121.62946520000001,
        37.34603119999999
      ],
      [
        -121.6290795,
        37.3459562
      ],
      [
        -121.6289487,
        37.34595490000001
      ],
      [
        -121.6287152,
        37.34599570000001
      ],
      [
        -121.62851650000002,
        37.3459957
      ],
      [
        -121.62828469999998,
        37.34592330000001
      ],
      [
        -121.62814569999999,
        37.345828499999996
      ],
      [
        -121.6279718,
        37.3456469
      ],
      [
        -121.6278791,
        37.345581
      ],
      [
        -121.627788,
        37.3455363
      ],
      [
        -121.6276721,
        37.34550339999999
      ],
      [
        -121.6275794,
        37.34550209999998
      ],
      [
        -121.62749829999998,
        37.3455205
      ],
      [
        -121.627293,
        37.34561399999999
      ],
      [
        -121.6271986,
        37.345628399999995
      ],
      [
        -121.62704960000002,
        37.3456258
      ],
      [
        -121.626836,
        37.34559029999999
      ],
      [
        -121.626682,
        37.3456258
      ],
      [
        -121.62640889999999,
        37.345796899999996
      ],
      [
        -121.62612239999999,
        37.3458627
      ],
      [
        -121.62603959999998,
        37.3458983
      ],
      [
        -121.625985,
        37.3459483
      ],
      [
        -121.625932,
        37.3460628
      ],
      [
        -121.6259304,
        37.34641549999999
      ],
      [
        -121.6259122,
        37.346482699999996
      ],
      [
        -121.6258675,
        37.346559
      ],
      [
        -121.6258078,
        37.346609
      ],
      [
        -121.6257135,
        37.3466446
      ],
      [
        -121.6256257,
        37.3466577
      ],
      [
        -121.6255065,
        37.3466459
      ],
      [
        -121.625154,
        37.34654999999999
      ],
      [
        -121.625033,
        37.346539
      ],
      [
        -121.62488,
        37.346563999999994
      ],
      [
        -121.6244684,
        37.34667290000001
      ],
      [
        -121.62435600000002,
        37.3466847
      ],
      [
        -121.6242462,
        37.3466777
      ],
      [
        -121.6239185,
        37.34659030000001
      ],
      [
        -121.62383019999999,
        37.346578400000006
      ],
      [
        -121.62375600000001,
        37.34658949999999
      ],
      [
        -121.62370530000001,
        37.346611700000004
      ],
      [
        -121.6236665,
        37.34665179999999
      ],
      [
        -121.62357210000002,
        37.34688
      ],
      [
        -121.62339360000001,
        37.3471175
      ],
      [
        -121.62334620000001,
        37.3472462
      ],
      [
        -121.62333749999999,
        37.347319899999995
      ],
      [
        -121.6233778,
        37.34750309999999
      ],
      [
        -121.62350700000002,
        37.34775500000001
      ],
      [
        -121.623551,
        37.347908999999994
      ],
      [
        -121.623533,
        37.34803
      ],
      [
        -121.623478,
        37.348192
      ],
      [
        -121.62343500000001,
        37.34829200000001
      ],
      [
        -121.623349,
        37.348393
      ],
      [
        -121.62324900000002,
        37.348448
      ],
      [
        -121.623164,
        37.348468000000004
      ],
      [
        -121.622848,
        37.34847099999999
      ],
      [
        -121.62243800000002,
        37.34850300000001
      ],
      [
        -121.6221252,
        37.3484863
      ],
      [
        -121.6220422,
        37.3485083
      ],
      [
        -121.6219722,
        37.3485493
      ],
      [
        -121.62189319999999,
        37.3486643
      ],
      [
        -121.62187700000001,
        37.348983999999994
      ],
      [
        -121.621851,
        37.349079
      ],
      [
        -121.621806,
        37.34916
      ],
      [
        -121.621565,
        37.349461000000005
      ],
      [
        -121.62148699999999,
        37.34952299999999
      ],
      [
        -121.62136,
        37.34957299999999
      ],
      [
        -121.621217,
        37.34958099999999
      ],
      [
        -121.621088,
        37.34955599999999
      ],
      [
        -121.62100300000002,
        37.349516
      ],
      [
        -121.620936,
        37.34945799999999
      ],
      [
        -121.620882,
        37.34936199999999
      ],
      [
        -121.62085900000001,
        37.349275
      ],
      [
        -121.6208447,
        37.348949399999995
      ],
      [
        -121.6208117,
        37.348897399999984
      ],
      [
        -121.6207457,
        37.3488634
      ],
      [
        -121.62066370000001,
        37.348869400000005
      ],
      [
        -121.62059769999999,
        37.3489034
      ],
      [
        -121.6205147,
        37.3489894
      ],
      [
        -121.620427,
        37.349160000000005
      ],
      [
        -121.62041199999999,
        37.349289000000006
      ],
      [
        -121.620441,
        37.34935599999999
      ],
      [
        -121.620562,
        37.349507
      ],
      [
        -121.62061899999999,
        37.349621
      ],
      [
        -121.62062,
        37.34994
      ],
      [
        -121.620755,
        37.350205
      ],
      [
        -121.62072499999998,
        37.35027
      ],
      [
        -121.620684,
        37.350289000000004
      ],
      [
        -121.620605,
        37.35028
      ],
      [
        -121.62054099999999,
        37.350230999999994
      ],
      [
        -121.62050199999999,
        37.350165
      ],
      [
        -121.620408,
        37.349892
      ],
      [
        -121.62034600000001,
        37.34979
      ],
      [
        -121.620292,
        37.349748
      ],
      [
        -121.62017200000001,
        37.349721999999986
      ],
      [
        -121.62009000000002,
        37.349745
      ],
      [
        -121.61988300000002,
        37.349896
      ],
      [
        -121.619798,
        37.34993599999999
      ],
      [
        -121.619702,
        37.34995399999999
      ],
      [
        -121.619528,
        37.349928
      ],
      [
        -121.619206,
        37.34980199999999
      ],
      [
        -121.61906600000002,
        37.349731000000006
      ],
      [
        -121.618979,
        37.349663
      ],
      [
        -121.618906,
        37.349563999999994
      ],
      [
        -121.61883,
        37.349406
      ],
      [
        -121.618734,
        37.34928899999999
      ],
      [
        -121.618619,
        37.34921899999999
      ],
      [
        -121.618226,
        37.349028
      ],
      [
        -121.618013,
        37.348946000000005
      ],
      [
        -121.617426,
        37.348772
      ],
      [
        -121.617276,
        37.34878700000001
      ],
      [
        -121.617204,
        37.348828
      ],
      [
        -121.6170045,
        37.3490518
      ],
      [
        -121.616656,
        37.34933899999999
      ],
      [
        -121.61647,
        37.349651
      ],
      [
        -121.61642100000002,
        37.34970899999999
      ],
      [
        -121.61635200000002,
        37.34974600000001
      ],
      [
        -121.616269,
        37.349749
      ],
      [
        -121.616212,
        37.349725
      ],
      [
        -121.616155,
        37.349662
      ],
      [
        -121.616132,
        37.349593
      ],
      [
        -121.6161468,
        37.349137199999994
      ],
      [
        -121.61609280000002,
        37.349023200000005
      ],
      [
        -121.6160378,
        37.348983199999985
      ],
      [
        -121.61595779999999,
        37.3489642
      ],
      [
        -121.6158358,
        37.3490012
      ],
      [
        -121.61568800000002,
        37.349135000000004
      ],
      [
        -121.61554500000001,
        37.34917099999999
      ],
      [
        -121.61544800000001,
        37.349155
      ],
      [
        -121.61533499999999,
        37.34909699999999
      ],
      [
        -121.615092,
        37.3488739
      ],
      [
        -121.615033,
        37.3488579
      ],
      [
        -121.61495300000001,
        37.3488689
      ],
      [
        -121.614853,
        37.348951899999996
      ],
      [
        -121.61483819999998,
        37.3490276
      ],
      [
        -121.6149568,
        37.3495938
      ],
      [
        -121.6149754,
        37.34980579999999
      ],
      [
        -121.6149641,
        37.349850100000005
      ],
      [
        -121.61487929999998,
        37.3499374
      ],
      [
        -121.61459330000001,
        37.35011089999999
      ],
      [
        -121.6144761,
        37.350230199999984
      ],
      [
        -121.6143984,
        37.35041030000001
      ],
      [
        -121.61432189999998,
        37.350701400000005
      ],
      [
        -121.61424949999999,
        37.3508794
      ],
      [
        -121.61417710000002,
        37.3509945
      ],
      [
        -121.613909,
        37.3513266
      ],
      [
        -121.6138714,
        37.35145729999999
      ],
      [
        -121.6138855,
        37.351517400000006
      ],
      [
        -121.61406970000002,
        37.3518391
      ],
      [
        -121.6140916,
        37.35199780000001
      ],
      [
        -121.61406010000002,
        37.352154500000005
      ],
      [
        -121.6140358,
        37.352196199999995
      ],
      [
        -121.6139494,
        37.3522624
      ],
      [
        -121.61389120000001,
        37.35226170000001
      ]
    ]
  }
}