{
  "type": "Feature",
  "properties": {
    "slug": "mount-hamilton-lick-to-smith-creek",
    "length_m": 10138.9,
    "n_points": 536,
    "utm_epsg": 32610
  },
  "geometry": {
    "type": "LineString",
    "coordinates": [
      [
        -121.6427229,
        37.342178200000006
      ],
      [
        -121.6433073,
        37.3423334
      ],
      [
        -121.64343940000002,
        37.342332400000004
      ],
      [
        -121.6435179,
        37.3422772
      ],
      [
        -121.6438012,
        37.341952799999994
      ],
      [
        -121.6438371,
        37.3418646
      ],
      [
        -121.6438105,
        37.341678400000006
      ],
      [
        -121.64381590000002,
        37.34158469999999
      ],
      [
        -121.64386090000002,
        37.34145019999999
      ],
      [
        -121.6440961,
        37.3409739
      ],
      [
        -121.64414090000001,
        37.340816499999995
      ],
      [
        -121.64414630000002,
        37.3404992
      ],
      [
        -121.6438833,
        37.33939399999999
      ],
      [
        -121.6438308,
        37.33895929999999
      ],
      [
        -121.6437695,
        37.338780299999996
      ],
      [
        -121.64369269999999,
        37.3386305
      ],
      [
        -121.6436436,
        37.33846419999999
      ],
      [
        -121.6436677,
        37.33814559999999
      ],
      [
        -121.6437339,
        37.3378106
      ],
      [
        -121.64385589999999,
        37.337436200000006
      ],
      [
        -121.6439364,
        37.33731629999999
      ],
      [
        -121.6440202,
        37.33726159999999
      ],
      [
        -121.6441008,
        37.33725599999999
      ],
      [
        -121.6441708,
        37.3372823
      ],
      [
        -121.6445062,
        37.33762019999999
      ],
      [
        -121.6449145,
        37.3379962
      ],
      [
        -121.6453715,
        37.338357200000004
      ],
      [
        -121.64544030000002,
        37.33844059999999
      ],
      [
        -121.6454617,
        37.3385105
      ],
      [
        -121.6454626,
        37.338580799999995
      ],
      [
        -121.6453616,
        37.33901039999999
      ],
      [
        -121.645262,
        37.33956989999999
      ],
      [
        -121.6450625,
        37.3399432
      ],
      [
        -121.64503070000002,
        37.3400768
      ],
      [
        -121.64502950000002,
        37.3401882
      ],
      [
        -121.6451914,
        37.3407403
      ],
      [
        -121.64519370000001,
        37.341277899999994
      ],
      [
        -121.64531699999999,
        37.34159029999999
      ],
      [
        -121.6453373,
        37.341695599999994
      ],
      [
        -121.64534109999998,
        37.3419371
      ],
      [
        -121.6452947,
        37.3422303
      ],
      [
        -121.64530649999999,
        37.342295
      ],
      [
        -121.64538039999998,
        37.3423714
      ],
      [
        -121.64549520000001,
        37.34239869999999
      ],
      [
        -121.6459584,
        37.34239800000001
      ],
      [
        -121.6460402,
        37.34238169999999
      ],
      [
        -121.64612850000002,
        37.3423137
      ],
      [
        -121.6462346,
        37.3421792
      ],
      [
        -121.64661610000002,
        37.3418997
      ],
      [
        -121.6467425,
        37.3418178
      ],
      [
        -121.6468254,
        37.34178249999999
      ],
      [
        -121.64689820000001,
        37.341774300000004
      ],
      [
        -121.6469511,
        37.34178579999999
      ],
      [
        -121.6470184,
        37.341846799999985
      ],
      [
        -121.6470595,
        37.342134300000005
      ],
      [
        -121.6471254,
        37.34227649999999
      ],
      [
        -121.647295,
        37.3424066
      ],
      [
        -121.6474608,
        37.34249440000001
      ],
      [
        -121.64750780000001,
        37.342501299999995
      ],
      [
        -121.64756819999998,
        37.3424665
      ],
      [
        -121.6475607,
        37.34241159999999
      ],
      [
        -121.6473657,
        37.34231630000001
      ],
      [
        -121.64730200000001,
        37.34226919999998
      ],
      [
        -121.6472161,
        37.3421525
      ],
      [
        -121.64720380000001,
        37.3420896
      ],
      [
        -121.6472311,
        37.341936700000005
      ],
      [
        -121.64733260000001,
        37.3417159
      ],
      [
        -121.64747990000001,
        37.3414833
      ],
      [
        -121.6476018,
        37.3413392
      ],
      [
        -121.64774230000002,
        37.3412074
      ],
      [
        -121.64790889999999,
        37.3411034
      ],
      [
        -121.64799530000002,
        37.34103060000001
      ],
      [
        -121.6480533,
        37.3409554
      ],
      [
        -121.6480825,
        37.34087039999999
      ],
      [
        -121.6480389,
        37.340635899999995
      ],
      [
        -121.6480456,
        37.3405292
      ],
      [
        -121.6480956,
        37.3404785
      ],
      [
        -121.6481689,
        37.3404632
      ],
      [
        -121.64822270000002,
        37.34048049999999
      ],
      [
        -121.64827970000002,
        37.34053740000001
      ],
      [
        -121.64832680000002,
        37.3407608
      ],
      [
        -121.6483303,
        37.3410063
      ],
      [
        -121.6483051,
        37.34108149999999
      ],
      [
        -121.6482151,
        37.3412081
      ],
      [
        -121.6480633,
        37.3413039
      ],
      [
        -121.64794549999999,
        37.3414065
      ],
      [
        -121.6478624,
        37.341538299999996
      ],
      [
        -121.64785309999999,
        37.3415972
      ],
      [
        -121.64786959999999,
        37.34164510000001
      ],
      [
        -121.6479493,
        37.341688
      ],
      [
        -121.6480685,
        37.34169090000001
      ],
      [
        -121.64879699999999,
        37.34160769999999
      ],
      [
        -121.6489436,
        37.341609
      ],
      [
        -121.64901420000001,
        37.3416264
      ],
      [
        -121.6491617,
        37.3417186
      ],
      [
        -121.6498325,
        37.3422534
      ],
      [
        -121.6499627,
        37.342292199999996
      ],
      [
        -121.65011290000001,
        37.3422954
      ],
      [
        -121.65023080000002,
        37.342248
      ],
      [
        -121.65037780000002,
        37.34209799999999
      ],
      [
        -121.6504352,
        37.34192889999999
      ],
      [
        -121.6504083,
        37.341352400000005
      ],
      [
        -121.65034810000002,
        37.341203300000004
      ],
      [
        -121.6503394,
        37.3410972
      ],
      [
        -121.6503735,
        37.341004700000006
      ],
      [
        -121.65043360000001,
        37.3409557
      ],
      [
        -121.6505052,
        37.34093419999999
      ],
      [
        -121.65085939999999,
        37.34097090000001
      ],
      [
        -121.6509361,
        37.34094710000001
      ],
      [
        -121.65099020000001,
        37.34090019999999
      ],
      [
        -121.65102649999999,
        37.340821399999996
      ],
      [
        -121.65104960000001,
        37.340636599999996
      ],
      [
        -121.6511042,
        37.3405854
      ],
      [
        -121.6511673,
        37.340576299999995
      ],
      [
        -121.65122930000001,
        37.3405797
      ],
      [
        -121.65134399999998,
        37.3406288
      ],
      [
        -121.65151370000001,
        37.34073369999999
      ],
      [
        -121.65165410000002,
        37.3408884
      ],
      [
        -121.6517222,
        37.340914199999986
      ],
      [
        -121.65180680000002,
        37.34089529999999
      ],
      [
        -121.6518705,
        37.3408419
      ],
      [
        -121.65188880000001,
        37.3407691
      ],
      [
        -121.65187760000002,
        37.340685699999995
      ],
      [
        -121.6516,
        37.340000599999996
      ],
      [
        -121.651573,
        37.339874999999985
      ],
      [
        -121.6516042,
        37.339795300000006
      ],
      [
        -121.6517548,
        37.339594
      ],
      [
        -121.6519119,
        37.33927309999999
      ],
      [
        -121.65202229999998,
        37.339200899999994
      ],
      [
        -121.65214880000002,
        37.3391767
      ],
      [
        -121.65226850000002,
        37.339178100000005
      ],
      [
        -121.6523905,
        37.3392037
      ],
      [
        -121.6526765,
        37.339353499999994
      ],
      [
        -121.6527752,
        37.3393652
      ],
      [
        -121.65286499999999,
        37.339347200000006
      ],
      [
        -121.6529476,
        37.339273399999996
      ],
      [
        -121.6530792,
        37.339041099999996
      ],
      [
        -121.65318870000002,
        37.33894630000001
      ],
      [
        -121.65330850000001,
        37.3388868
      ],
      [
        -121.6534478,
        37.3388568
      ],
      [
        -121.65359130000002,
        37.33888079999999
      ],
      [
        -121.6537209,
        37.3389345
      ],
      [
        -121.65383500000002,
        37.33902419999999
      ],
      [
        -121.65387529999998,
        37.339117599999994
      ],
      [
        -121.6538039,
        37.3394269
      ],
      [
        -121.653836,
        37.339503999999984
      ],
      [
        -121.65394750000002,
        37.339564100000004
      ],
      [
        -121.65446119999999,
        37.33972299999999
      ],
      [
        -121.65456580000001,
        37.33977949999999
      ],
      [
        -121.65463550000001,
        37.339835
      ],
      [
        -121.6546878,
        37.3399064
      ],
      [
        -121.654779,
        37.34007170000001
      ],
      [
        -121.65483529999999,
        37.340109999999996
      ],
      [
        -121.65489439999999,
        37.340126
      ],
      [
        -121.65493870000002,
        37.3401123
      ],
      [
        -121.65498580000002,
        37.3400651
      ],
      [
        -121.6550151,
        37.3399896
      ],
      [
        -121.6550164,
        37.339894699999995
      ],
      [
        -121.6549855,
        37.33981789999999
      ],
      [
        -121.6549426,
        37.33975819999999
      ],
      [
        -121.65460600000002,
        37.3395865
      ],
      [
        -121.6545081,
        37.339519300000006
      ],
      [
        -121.6544183,
        37.3394117
      ],
      [
        -121.65437170000001,
        37.33931530000001
      ],
      [
        -121.654378,
        37.33877720000001
      ],
      [
        -121.6544196,
        37.3384744
      ],
      [
        -121.65437270000001,
        37.3383955
      ],
      [
        -121.6543029,
        37.338347500000005
      ],
      [
        -121.6542171,
        37.33832619999999
      ],
      [
        -121.6541219,
        37.33833469999999
      ],
      [
        -121.6538627,
        37.33840489999999
      ],
      [
        -121.6537946,
        37.33839869999999
      ],
      [
        -121.6531355,
        37.338166
      ],
      [
        -121.65306999999999,
        37.338095200000005
      ],
      [
        -121.6530517,
        37.33800300000001
      ],
      [
        -121.6530696,
        37.33792989999999
      ],
      [
        -121.6532663,
        37.33760749999999
      ],
      [
        -121.6533078,
        37.337488099999995
      ],
      [
        -121.6533239,
        37.337229
      ],
      [
        -121.6532541,
        37.33688070000001
      ],
      [
        -121.65329440000001,
        37.33682170000001
      ],
      [
        -121.6533749,
        37.336794999999995
      ],
      [
        -121.65344190000002,
        37.3367982
      ],
      [
        -121.6534956,
        37.336834499999995
      ],
      [
        -121.6535278,
        37.33690909999999
      ],
      [
        -121.6535519,
        37.3371256
      ],
      [
        -121.6536927,
        37.337357999999995
      ],
      [
        -121.6537182,
        37.337450800000006
      ],
      [
        -121.6537142,
        37.337540399999995
      ],
      [
        -121.6536842,
        37.3376291
      ],
      [
        -121.6536032,
        37.33773579999999
      ],
      [
        -121.6535915,
        37.337816899999986
      ],
      [
        -121.6536485,
        37.3378709
      ],
      [
        -121.6537383,
        37.3379072
      ],
      [
        -121.6538912,
        37.33790929999999
      ],
      [
        -121.6541742,
        37.33780799999998
      ],
      [
        -121.6542372,
        37.3377525
      ],
      [
        -121.65440080000002,
        37.337461499999996
      ],
      [
        -121.6546239,
        37.3371356
      ],
      [
        -121.6547804,
        37.33701249999999
      ],
      [
        -121.6548823,
        37.3369763
      ],
      [
        -121.6549668,
        37.33697099999999
      ],
      [
        -121.655058,
        37.3369891
      ],
      [
        -121.655176,
        37.33706159999999
      ],
      [
        -121.65540530000001,
        37.3373548
      ],
      [
        -121.65547640000001,
        37.3373975
      ],
      [
        -121.6556427,
        37.33741239999999
      ],
      [
        -121.65591900000001,
        37.3373602
      ],
      [
        -121.65620190000001,
        37.3374081
      ],
      [
        -121.65629580000001,
        37.3374071
      ],
      [
        -121.65639369999998,
        37.3373932
      ],
      [
        -121.6565023,
        37.33734199999999
      ],
      [
        -121.6565882,
        37.3372631
      ],
      [
        -121.6566569,
        37.337164200000004
      ],
      [
        -121.6567233,
        37.3367018
      ],
      [
        -121.65677730000002,
        37.3365764
      ],
      [
        -121.65683760000002,
        37.33649110000001
      ],
      [
        -121.6569704,
        37.336380199999994
      ],
      [
        -121.65707769999999,
        37.33630560000001
      ],
      [
        -121.6571702,
        37.33627999999999
      ],
      [
        -121.65723319999998,
        37.33628209999999
      ],
      [
        -121.65731370000002,
        37.33631629999999
      ],
      [
        -121.6573794,
        37.336397299999994
      ],
      [
        -121.65765429999999,
        37.3369358
      ],
      [
        -121.6577214,
        37.33696349999999
      ],
      [
        -121.65795340000001,
        37.337005100000006
      ],
      [
        -121.658058,
        37.337052
      ],
      [
        -121.6581264,
        37.337137299999995
      ],
      [
        -121.65816640000001,
        37.33724159999999
      ],
      [
        -121.6582498,
        37.337609699999994
      ],
      [
        -121.6582929,
        37.338141
      ],
      [
        -121.65828,
        37.33826620000001
      ],
      [
        -121.6581988,
        37.3384051
      ],
      [
        -121.65812110000002,
        37.3384776
      ],
      [
        -121.6579454,
        37.3385181
      ],
      [
        -121.6576315,
        37.338516000000006
      ],
      [
        -121.6573298,
        37.3385821
      ],
      [
        -121.6568966,
        37.33880280000001
      ],
      [
        -121.6566941,
        37.3389372
      ],
      [
        -121.65664449999998,
        37.33898730000001
      ],
      [
        -121.6566391,
        37.33909599999999
      ],
      [
        -121.6566983,
        37.33913510000001
      ],
      [
        -121.6569932,
        37.33924319999999
      ],
      [
        -121.65710320000001,
        37.33929969999999
      ],
      [
        -121.65715809999999,
        37.339360500000005
      ],
      [
        -121.6571742,
        37.33943829999999
      ],
      [
        -121.65711789999999,
        37.33981039999999
      ],
      [
        -121.657024,
        37.340012
      ],
      [
        -121.6569375,
        37.340367799999996
      ],
      [
        -121.6569503,
        37.3408319
      ],
      [
        -121.65699720000002,
        37.34087349999999
      ],
      [
        -121.65705759999999,
        37.340894799999994
      ],
      [
        -121.6571438,
        37.34087889999998
      ],
      [
        -121.65720130000001,
        37.3408349
      ],
      [
        -121.65726009999999,
        37.3407519
      ],
      [
        -121.65741940000001,
        37.34040079999999
      ],
      [
        -121.65748269999999,
        37.340352100000004
      ],
      [
        -121.65759940000001,
        37.34030090000001
      ],
      [
        -121.65784479999999,
        37.34023160000002
      ],
      [
        -121.65795070000001,
        37.34018040000001
      ],
      [
        -121.65811030000002,
        37.340135599999996
      ],
      [
        -121.6582672,
        37.340123899999995
      ],
      [
        -121.65842149999999,
        37.34013029999999
      ],
      [
        -121.658569,
        37.34015479999999
      ],
      [
        -121.6587339,
        37.340204899999996
      ],
      [
        -121.65890960000002,
        37.3402892
      ],
      [
        -121.6589767,
        37.3403414
      ],
      [
        -121.65907880000002,
        37.3404809
      ],
      [
        -121.6591269,
        37.34050349999999
      ],
      [
        -121.65978270000001,
        37.3406432
      ],
      [
        -121.6599154,
        37.34062290000001
      ],
      [
        -121.66006299999998,
        37.3405238
      ],
      [
        -121.66017959999999,
        37.3404694
      ],
      [
        -121.66030440000002,
        37.3404523
      ],
      [
        -121.660594,
        37.34048750000001
      ],
      [
        -121.66079919999999,
        37.3405472
      ],
      [
        -121.6609226,
        37.340549300000006
      ],
      [
        -121.66104060000002,
        37.3405291
      ],
      [
        -121.66132630000001,
        37.340422499999995
      ],
      [
        -121.6615838,
        37.3403553
      ],
      [
        -121.6616642,
        37.340305199999996
      ],
      [
        -121.6618453,
        37.340150599999994
      ],
      [
        -121.6619767,
        37.34007379999999
      ],
      [
        -121.6621779,
        37.3400141
      ],
      [
        -121.6623804,
        37.3399789
      ],
      [
        -121.6628149,
        37.3399682
      ],
      [
        -121.6629168,
        37.339950099999996
      ],
      [
        -121.66298120000002,
        37.339918100000006
      ],
      [
        -121.6633138,
        37.339627
      ],
      [
        -121.6635619,
        37.3394372
      ],
      [
        -121.66380869999999,
        37.339102399999994
      ],
      [
        -121.66401249999998,
        37.33889239999999
      ],
      [
        -121.66416,
        37.33877619999999
      ],
      [
        -121.66424589999998,
        37.3387335
      ],
      [
        -121.6643183,
        37.338716500000004
      ],
      [
        -121.6644041,
        37.33871750000001
      ],
      [
        -121.6645812,
        37.33877829999998
      ],
      [
        -121.6647662,
        37.338899899999994
      ],
      [
        -121.66484130000002,
        37.33898730000001
      ],
      [
        -121.6648641,
        37.33904590000001
      ],
      [
        -121.6648547,
        37.339105599999996
      ],
      [
        -121.6648239,
        37.33915579999999
      ],
      [
        -121.66475949999999,
        37.33921120000001
      ],
      [
        -121.6644779,
        37.3393605
      ],
      [
        -121.6643585,
        37.339399900000004
      ],
      [
        -121.66410640000001,
        37.339442600000005
      ],
      [
        -121.66402590000001,
        37.3394842
      ],
      [
        -121.6637443,
        37.3398947
      ],
      [
        -121.6635163,
        37.34014099999999
      ],
      [
        -121.6633207,
        37.3404192
      ],
      [
        -121.6632931,
        37.34056389999999
      ],
      [
        -121.6633216,
        37.3407421
      ],
      [
        -121.663306,
        37.3408488
      ],
      [
        -121.6632226,
        37.340931100000006
      ],
      [
        -121.6631193,
        37.3409918
      ],
      [
        -121.6629718,
        37.341043
      ],
      [
        -121.6625262,
        37.34114840000001
      ],
      [
        -121.66245800000002,
        37.3412102
      ],
      [
        -121.66243559999998,
        37.3412807
      ],
      [
        -121.6624917,
        37.3413575
      ],
      [
        -121.6627237,
        37.3415548
      ],
      [
        -121.6629396,
        37.3418224
      ],
      [
        -121.66299059999999,
        37.341870400000005
      ],
      [
        -121.6630577,
        37.3418917
      ],
      [
        -121.66310330000002,
        37.3418917
      ],
      [
        -121.66317570000001,
        37.3418384
      ],
      [
        -121.66315289999999,
        37.341752
      ],
      [
        -121.66303490000001,
        37.341639
      ],
      [
        -121.66295310000001,
        37.34148230000001
      ],
      [
        -121.66295570000001,
        37.3414055
      ],
      [
        -121.6629799,
        37.341340499999994
      ],
      [
        -121.6630375,
        37.34126690000001
      ],
      [
        -121.66313540000002,
        37.3412189
      ],
      [
        -121.6638865,
        37.34101100000001
      ],
      [
        -121.664101,
        37.340892700000005
      ],
      [
        -121.6641895,
        37.340818
      ],
      [
        -121.66425660000002,
        37.3407103
      ],
      [
        -121.6643223,
        37.340641
      ],
      [
        -121.66442020000001,
        37.340584500000006
      ],
      [
        -121.6645128,
        37.3405643
      ],
      [
        -121.6646013,
        37.340562099999985
      ],
      [
        -121.6650492,
        37.3406826
      ],
      [
        -121.6651578,
        37.3406858
      ],
      [
        -121.6652705,
        37.340660199999995
      ],
      [
        -121.6655508,
        37.34055359999999
      ],
      [
        -121.6656151,
        37.3405557
      ],
      [
        -121.6657291,
        37.34058559999999
      ],
      [
        -121.66592630000001,
        37.3406869
      ],
      [
        -121.6662991,
        37.34082119999999
      ],
      [
        -121.6665646,
        37.341025899999984
      ],
      [
        -121.6666558,
        37.3410611
      ],
      [
        -121.6668181,
        37.341046199999994
      ],
      [
        -121.6668607,
        37.3410159
      ],
      [
        -121.66689590000001,
        37.340954499999995
      ],
      [
        -121.66700450000002,
        37.3406325
      ],
      [
        -121.6670501,
        37.340579199999986
      ],
      [
        -121.66721640000002,
        37.34049279999999
      ],
      [
        -121.6675168,
        37.340378699999995
      ],
      [
        -121.66762410000001,
        37.34027110000001
      ],
      [
        -121.66779580000001,
        37.3398883
      ],
      [
        -121.66782489999999,
        37.3397849
      ],
      [
        -121.66781319999998,
        37.339691
      ],
      [
        -121.6677569,
        37.33960040000001
      ],
      [
        -121.6676684,
        37.3395407
      ],
      [
        -121.66757049999998,
        37.3394991
      ],
      [
        -121.6673854,
        37.33944360000001
      ],
      [
        -121.6667886,
        37.3393296
      ],
      [
        -121.6667162,
        37.33930819999999
      ],
      [
        -121.66660350000001,
        37.33922079999999
      ],
      [
        -121.6665781,
        37.339159
      ],
      [
        -121.6665767,
        37.33908009999999
      ],
      [
        -121.66671770000002,
        37.3387383
      ],
      [
        -121.66673090000002,
        37.3386312
      ],
      [
        -121.6666974,
        37.3385736
      ],
      [
        -121.6666183,
        37.3385096
      ],
      [
        -121.6663246,
        37.338405099999996
      ],
      [
        -121.6661382,
        37.33829630000001
      ],
      [
        -121.66606309999999,
        37.3382121
      ],
      [
        -121.6659156,
        37.3378645
      ],
      [
        -121.66589540000001,
        37.3377888
      ],
      [
        -121.66590319999999,
        37.3377038
      ],
      [
        -121.6659504,
        37.3376374
      ],
      [
        -121.66625420000001,
        37.337410099999985
      ],
      [
        -121.66644590000001,
        37.33715069999999
      ],
      [
        -121.66654859999998,
        37.3370712
      ],
      [
        -121.66667999999999,
        37.3370307
      ],
      [
        -121.66708370000002,
        37.336964599999995
      ],
      [
        -121.66715019999998,
        37.33693689999999
      ],
      [
        -121.6671829,
        37.33689739999999
      ],
      [
        -121.6672017,
        37.3368515
      ],
      [
        -121.66719540000001,
        37.336780099999984
      ],
      [
        -121.6671011,
        37.3365327
      ],
      [
        -121.6671011,
        37.33644309999999
      ],
      [
        -121.6671494,
        37.3363259
      ],
      [
        -121.66724150000002,
        37.336210900000005
      ],
      [
        -121.6672607,
        37.33613499999999
      ],
      [
        -121.6672339,
        37.33606569999999
      ],
      [
        -121.666975,
        37.3357746
      ],
      [
        -121.66694190000001,
        37.3356914
      ],
      [
        -121.66695359999999,
        37.33563379999999
      ],
      [
        -121.6669733,
        37.3355893
      ],
      [
        -121.667038,
        37.335524299999996
      ],
      [
        -121.6675477,
        37.33514970000001
      ],
      [
        -121.6676201,
        37.3350719
      ],
      [
        -121.66762410000001,
        37.33503350000001
      ],
      [
        -121.66760130000002,
        37.3349812
      ],
      [
        -121.6675369,
        37.3349439
      ],
      [
        -121.66744709999999,
        37.33494389999999
      ],
      [
        -121.66707960000001,
        37.335079300000004
      ],
      [
        -121.6669723,
        37.3350868
      ],
      [
        -121.66693079999999,
        37.3350665
      ],
      [
        -121.66693079999999,
        37.334989799999995
      ],
      [
        -121.66712700000001,
        37.3347645
      ],
      [
        -121.66724859999998,
        37.334564300000004
      ],
      [
        -121.6673072,
        37.334239299999986
      ],
      [
        -121.6673854,
        37.3340535
      ],
      [
        -121.6674833,
        37.333726199999994
      ],
      [
        -121.6675354,
        37.33362220000001
      ],
      [
        -121.6675772,
        37.333563
      ],
      [
        -121.6678937,
        37.3333135
      ],
      [
        -121.6679777,
        37.3332251
      ],
      [
        -121.6680332,
        37.3330768
      ],
      [
        -121.66801569999998,
        37.333000000000006
      ],
      [
        -121.66797550000001,
        37.332936
      ],
      [
        -121.6679111,
        37.332885899999994
      ],
      [
        -121.66772199999998,
        37.3327974
      ],
      [
        -121.6674967,
        37.332648100000014
      ],
      [
        -121.6673921,
        37.332631
      ],
      [
        -121.6672586,
        37.3326443
      ],
      [
        -121.6671046,
        37.3326965
      ],
      [
        -121.66697040000001,
        37.3327941
      ],
      [
        -121.6669039,
        37.3328209
      ],
      [
        -121.6667993,
        37.33278670000001
      ],
      [
        -121.66674029999999,
        37.33272379999999
      ],
      [
        -121.6666974,
        37.33264919999999
      ],
      [
        -121.66667189999998,
        37.33255
      ],
      [
        -121.66669340000001,
        37.332487099999994
      ],
      [
        -121.6668905,
        37.33225569999999
      ],
      [
        -121.66692269999999,
        37.33213729999999
      ],
      [
        -121.6669951,
        37.33156679999998
      ],
      [
        -121.66706619999998,
        37.3311851
      ],
      [
        -121.6670702,
        37.33106669999999
      ],
      [
        -121.66704209999999,
        37.33098240000001
      ],
      [
        -121.6667953,
        37.330613500000005
      ],
      [
        -121.66674029999999,
        37.3305548
      ],
      [
        -121.6666612,
        37.3304951
      ],
      [
        -121.66655120000001,
        37.330468499999995
      ],
      [
        -121.6664185,
        37.33046629999999
      ],
      [
        -121.6663326,
        37.3304802
      ],
      [
        -121.66623740000001,
        37.330505800000005
      ],
      [
        -121.6661167,
        37.33056229999999
      ],
      [
        -121.66592489999998,
        37.33074999999999
      ],
      [
        -121.66584619999999,
        37.3308182
      ],
      [
        -121.6657908,
        37.3308449
      ],
      [
        -121.6657144,
        37.3308598
      ],
      [
        -121.6656259,
        37.3308566
      ],
      [
        -121.66554940000002,
        37.33082679999999
      ],
      [
        -121.6654649,
        37.330767
      ],
      [
        -121.6654131,
        37.330694799999996
      ],
      [
        -121.6651632,
        37.330203999999995
      ],
      [
        -121.6651431,
        37.3299747
      ],
      [
        -121.6651095,
        37.32985420000001
      ],
      [
        -121.6649312,
        37.329601499999995
      ],
      [
        -121.66489360000001,
        37.32952579999999
      ],
      [
        -121.6648929,
        37.3294429
      ],
      [
        -121.6649111,
        37.329389299999995
      ],
      [
        -121.66504519999998,
        37.3292741
      ],
      [
        -121.6653644,
        37.3291259
      ],
      [
        -121.66555750000002,
        37.3290139
      ],
      [
        -121.66564999999999,
        37.3289766
      ],
      [
        -121.66578139999999,
        37.3289488
      ],
      [
        -121.6660698,
        37.3289446
      ],
      [
        -121.66618649999998,
        37.328918999999985
      ],
      [
        -121.666279,
        37.3288561
      ],
      [
        -121.66635680000002,
        37.3287772
      ],
      [
        -121.6663823,
        37.3287089
      ],
      [
        -121.66637419999999,
        37.3286396
      ],
      [
        -121.66633130000001,
        37.3285809
      ],
      [
        -121.66613680000002,
        37.328471099999994
      ],
      [
        -121.6660684,
        37.3284188
      ],
      [
        -121.66602550000002,
        37.32835910000001
      ],
      [
        -121.66598870000001,
        37.3281393
      ],
      [
        -121.66599199999999,
        37.3280243
      ],
      [
        -121.6659169,
        37.32759769999999
      ],
      [
        -121.6659369,
        37.327538800000006
      ],
      [
        -121.6659772,
        37.327504899999994
      ],
      [
        -121.6661613,
        37.3274771
      ],
      [
        -121.6662696,
        37.3274409
      ],
      [
        -121.6664842,
        37.32727880000001
      ],
      [
        -121.6665781,
        37.3272575
      ],
      [
        -121.667321,
        37.327342800000004
      ],
      [
        -121.6674377,
        37.327345
      ],
      [
        -121.6676576,
        37.3272799
      ],
      [
        -121.6677797,
        37.3271999
      ],
      [
        -121.66786149999999,
        37.32711249999999
      ],
      [
        -121.6678897,
        37.327023999999994
      ],
      [
        -121.6678508,
        37.326725399999994
      ],
      [
        -121.66786020000002,
        37.3262945
      ],
      [
        -121.66789230000002,
        37.3262444
      ],
      [
        -121.6679621,
        37.32619639999999
      ],
      [
        -121.6680613,
        37.326185699999996
      ],
      [
        -121.66850119999998,
        37.3262476
      ],
      [
        -121.66886329999998,
        37.3262657
      ],
      [
        -121.6689987,
        37.326302
      ],
      [
        -121.6690926,
        37.3263702
      ],
      [
        -121.6691496,
        37.3264628
      ],
      [
        -121.6692415,
        37.3267861
      ],
      [
        -121.66930180000001,
        37.326883200000005
      ],
      [
        -121.66955870000001,
        37.32714070000001
      ],
      [
        -121.6697317,
        37.327283099999995
      ],
      [
        -121.66994420000002,
        37.32737379999999
      ],
      [
        -121.6700991,
        37.32740410000001
      ],
      [
        -121.67034120000001,
        37.327482499999995
      ],
      [
        -121.67057660000002,
        37.32762919999999
      ],
      [
        -121.6706617,
        37.327655299999996
      ],
      [
        -121.6708039,
        37.3276777
      ],
      [
        -121.6709152,
        37.32767549999999
      ],
      [
        -121.6710238,
        37.327651
      ],
      [
        -121.67109759999998,
        37.32758599999999
      ],
      [
        -121.67112710000002,
        37.327522
      ],
      [
        -121.67113379999999,
        37.3274292
      ],
      [
        -121.67110700000002,
        37.3273492
      ],
      [
        -121.67103990000001,
        37.3272607
      ],
      [
        -121.6706269,
        37.3268736
      ],
      [
        -121.6702232,
        37.326360599999994
      ],
      [
        -121.67004349999999,
        37.326187899999994
      ],
      [
        -121.66986770000001,
        37.3259855
      ],
      [
        -121.66919860000002,
        37.3250084
      ],
      [
        -121.668812,
        37.32455900000001
      ],
      [
        -121.6687368,
        37.3244135
      ],
      [
        -121.66870240000002,
        37.324272500000006
      ],
      [
        -121.6686983,
        37.324135000000005
      ],
      [
        -121.66875490000001,
        37.32395629999999
      ],
      [
        -121.66897360000002,
        37.3236059
      ],
      [
        -121.6690725,
        37.32351
      ],
      [
        -121.6692913,
        37.32342520000002
      ]
    ]
  }
}