{
  "type": "Feature",
  "properties": {
    "slug": "giant-s-head-freeride",
    "length_m": 2038.061003494628,
    "n_points": 98,
    "utm_epsg": 32611
  },
  "geometry": {
    "type": "LineString",
    "coordinates": [
      [
        -119.66991813375866,
        49.58819354493654
      ],
      [
        -119.67021060000002,
        49.588301
      ],
      [
        -119.6703073,
        49.588307
      ],
      [
        -119.67039100000001,
        49.5882872
      ],
      [
        -119.6706042,
        49.5880865
      ],
      [
        -119.670671,
        49.5880577
      ],
      [
        -119.6709714,
        49.58801869999999
      ],
      [
        -119.67113779999998,
        49.58804099999999
      ],
      [
        -119.6711846,
        49.58806919999999
      ],
      [
        -119.6712477,
        49.58815579999999
      ],
      [
        -119.67124930000001,
        49.5882091
      ],
      [
        -119.6710744,
        49.588431099999994
      ],
      [
        -119.67103240000002,
        49.5884979
      ],
      [
        -119.6710139,
        49.58858000000001
      ],
      [
        -119.6710593,
        49.58885279999999
      ],
      [
        -119.6711892,
        49.5890184
      ],
      [
        -119.6721522,
        49.58971489999999
      ],
      [
        -119.672203,
        49.589819999999996
      ],
      [
        -119.67220590000001,
        49.5898558
      ],
      [
        -119.67192620000002,
        49.59010059999999
      ],
      [
        -119.67193210000002,
        49.59056229999999
      ],
      [
        -119.6720016,
        49.59062920000001
      ],
      [
        -119.67209060000002,
        49.5906253
      ],
      [
        -119.67246350000002,
        49.5903969
      ],
      [
        -119.6726063,
        49.59038809999999
      ],
      [
        -119.67276200000002,
        49.59046
      ],
      [
        -119.67287450000002,
        49.5905573
      ],
      [
        -119.6728966,
        49.590604
      ],
      [
        -119.6728786,
        49.5906613
      ],
      [
        -119.6725912,
        49.59073299999999
      ],
      [
        -119.6725642,
        49.59080660000001
      ],
      [
        -119.67241910000001,
        49.591848399999996
      ],
      [
        -119.67232280000002,
        49.5920412
      ],
      [
        -119.67197249999998,
        49.59248079999999
      ],
      [
        -119.67166450000002,
        49.592722
      ],
      [
        -119.67170500000002,
        49.5928002
      ],
      [
        -119.67179849999998,
        49.5928066
      ],
      [
        -119.6720476,
        49.5926811
      ],
      [
        -119.67239840000002,
        49.59233129999999
      ],
      [
        -119.6732099,
        49.592001999999994
      ],
      [
        -119.67333750000002,
        49.5919923
      ],
      [
        -119.67339820000001,
        49.59204549999999
      ],
      [
        -119.6733751,
        49.592112799999995
      ],
      [
        -119.6729549,
        49.592291499999995
      ],
      [
        -119.672935,
        49.5923852
      ],
      [
        -119.6730323,
        49.592435099999996
      ],
      [
        -119.67316700000002,
        49.592424
      ],
      [
        -119.67335049999998,
        49.59232179999999
      ],
      [
        -119.6736668,
        49.59229239999999
      ],
      [
        -119.6740328,
        49.5924266
      ],
      [
        -119.67405579999999,
        49.5924912
      ],
      [
        -119.6740059,
        49.59255149999999
      ],
      [
        -119.67362499999999,
        49.59264669999999
      ],
      [
        -119.67305879999999,
        49.5928871
      ],
      [
        -119.6728678,
        49.59304579999999
      ],
      [
        -119.6729467,
        49.59317760000001
      ],
      [
        -119.6733914,
        49.5933646
      ],
      [
        -119.67367410000001,
        49.59360060000001
      ],
      [
        -119.673932,
        49.594046399999996
      ],
      [
        -119.67448960000002,
        49.5943815
      ],
      [
        -119.674509,
        49.594463000000005
      ],
      [
        -119.67442800000002,
        49.5945269
      ],
      [
        -119.6742747,
        49.5945315
      ],
      [
        -119.67231240000001,
        49.593983599999994
      ],
      [
        -119.67201989999998,
        49.593972199999996
      ],
      [
        -119.67172130000002,
        49.5940081
      ],
      [
        -119.6716141,
        49.5940411
      ],
      [
        -119.6715763,
        49.5940692
      ],
      [
        -119.6715561,
        49.5941041
      ],
      [
        -119.67156170000001,
        49.59417189999999
      ],
      [
        -119.6716533,
        49.59422639999998
      ],
      [
        -119.6718597,
        49.594256499999986
      ],
      [
        -119.6719666,
        49.59428799999999
      ],
      [
        -119.67200720000001,
        49.59435719999999
      ],
      [
        -119.6719767,
        49.59442289999999
      ],
      [
        -119.6718994,
        49.5944544
      ],
      [
        -119.67169849999999,
        49.594471399999996
      ],
      [
        -119.67129560000001,
        49.5944254
      ],
      [
        -119.6711706,
        49.594427200000005
      ],
      [
        -119.6710328,
        49.59448249999999
      ],
      [
        -119.67101140000001,
        49.59454329999999
      ],
      [
        -119.6710493,
        49.5946036
      ],
      [
        -119.6711762,
        49.5946633
      ],
      [
        -119.67158930000001,
        49.5947772
      ],
      [
        -119.67190670000001,
        49.59482930000001
      ],
      [
        -119.6719804,
        49.5948562
      ],
      [
        -119.67202610000001,
        49.59490950000001
      ],
      [
        -119.6720178,
        49.5949905
      ],
      [
        -119.6719681,
        49.5950245
      ],
      [
        -119.6718583,
        49.595050799999996
      ],
      [
        -119.67143479999999,
        49.5951035
      ],
      [
        -119.6709077,
        49.5951269
      ],
      [
        -119.6707926,
        49.59515300000001
      ],
      [
        -119.6707178,
        49.5952032
      ],
      [
        -119.6707118,
        49.595275799999996
      ],
      [
        -119.6707818,
        49.595342
      ],
      [
        -119.6709579,
        49.5953697
      ],
      [
        -119.671193,
        49.59536260000001
      ]
    ]
  }
}