{
  "type": "Feature",
  "properties": {
    "slug": "sa-calobra",
    "length_m": 9284.135956610555,
    "n_points": 366,
    "utm_epsg": 32631
  },
  "geometry": {
    "type": "LineString",
    "coordinates": [
      [
        2.8167174,
        39.83043469999999
      ],
      [
        2.816347,
        39.83169139999999
      ],
      [
        2.8162238,
        39.8318314
      ],
      [
        2.8158181000000004,
        39.83212799999999
      ],
      [
        2.8157366000000006,
        39.83223339999999
      ],
      [
        2.815721,
        39.83233599999998
      ],
      [
        2.8157434000000006,
        39.83239919999999
      ],
      [
        2.8157922,
        39.83245639999999
      ],
      [
        2.8158839000000007,
        39.83250700000001
      ],
      [
        2.8159902,
        39.83251419999999
      ],
      [
        2.8160674000000006,
        39.832493299999996
      ],
      [
        2.8161232000000003,
        39.832448899999996
      ],
      [
        2.8161595,
        39.83236080000001
      ],
      [
        2.8161163000000005,
        39.83218909999999
      ],
      [
        2.8158228000000003,
        39.83188559999999
      ],
      [
        2.8157726000000003,
        39.83179249999999
      ],
      [
        2.8157568000000004,
        39.831709899999986
      ],
      [
        2.815801,
        39.83149279999999
      ],
      [
        2.8160485,
        39.830829300000005
      ],
      [
        2.8160524,
        39.8305888
      ],
      [
        2.8159992,
        39.8304338
      ],
      [
        2.8159455,
        39.830324499999996
      ],
      [
        2.8159052,
        39.8302942
      ],
      [
        2.8158507,
        39.830282700000005
      ],
      [
        2.8157532,
        39.830295400000004
      ],
      [
        2.8154425999999995,
        39.830418699999996
      ],
      [
        2.8153397,
        39.8304278
      ],
      [
        2.8151591,
        39.8303947
      ],
      [
        2.8151062000000002,
        39.8303411
      ],
      [
        2.8150978000000006,
        39.83024329999999
      ],
      [
        2.8152409,
        39.82963960000001
      ],
      [
        2.8152506,
        39.82954599999999
      ],
      [
        2.815237,
        39.82949030000001
      ],
      [
        2.8151512,
        39.8294233
      ],
      [
        2.8147952999999997,
        39.82931649999999
      ],
      [
        2.8145626,
        39.8292069
      ],
      [
        2.8144713,
        39.8292019
      ],
      [
        2.8143855000000007,
        39.829224399999994
      ],
      [
        2.8142393000000006,
        39.829424
      ],
      [
        2.8141789999999998,
        39.8294808
      ],
      [
        2.8140327,
        39.8295796
      ],
      [
        2.8135673,
        39.8298264
      ],
      [
        2.8135065,
        39.8298766
      ],
      [
        2.8134984000000003,
        39.829920099999995
      ],
      [
        2.8135428000000005,
        39.82997230000001
      ],
      [
        2.8136345000000005,
        39.82996409999999
      ],
      [
        2.8144788,
        39.82962659999999
      ],
      [
        2.8145993,
        39.82964219999999
      ],
      [
        2.8146608,
        39.8297043
      ],
      [
        2.8146545,
        39.82979879999999
      ],
      [
        2.8146112000000003,
        39.8298447
      ],
      [
        2.8145147,
        39.8298786
      ],
      [
        2.8141042,
        39.8299676
      ],
      [
        2.8139131000000006,
        39.8300502
      ],
      [
        2.8138251,
        39.8301017
      ],
      [
        2.8136537000000006,
        39.8302397
      ],
      [
        2.8135824,
        39.83035009999998
      ],
      [
        2.8136050000000004,
        39.8304096
      ],
      [
        2.8136462000000004,
        39.8304255
      ],
      [
        2.8136965000000003,
        39.830421400000006
      ],
      [
        2.8139814999999997,
        39.830201599999995
      ],
      [
        2.8140997,
        39.8301901
      ],
      [
        2.8141965,
        39.8302287
      ],
      [
        2.8142243,
        39.8302732
      ],
      [
        2.8142231000000004,
        39.8303303
      ],
      [
        2.8140946999999996,
        39.8305266
      ],
      [
        2.8140829,
        39.8305944
      ],
      [
        2.8141597000000003,
        39.83080290000001
      ],
      [
        2.8143532,
        39.83104670000001
      ],
      [
        2.8148159,
        39.831365999999996
      ],
      [
        2.8148767000000006,
        39.83143059999999
      ],
      [
        2.8148917,
        39.831475700000006
      ],
      [
        2.8148814,
        39.831555
      ],
      [
        2.8145611,
        39.832071000000006
      ],
      [
        2.8144664999999995,
        39.8323462
      ],
      [
        2.8144044,
        39.8324729
      ],
      [
        2.8142409000000006,
        39.8327002
      ],
      [
        2.8141241999999997,
        39.83279350000001
      ],
      [
        2.8139767,
        39.83288999999999
      ],
      [
        2.8136652,
        39.83304569999999
      ],
      [
        2.8120842,
        39.83352529999999
      ],
      [
        2.8119455000000007,
        39.8335398
      ],
      [
        2.8118901999999997,
        39.8335112
      ],
      [
        2.8118683,
        39.8334651
      ],
      [
        2.8118851000000005,
        39.83341670000001
      ],
      [
        2.8119302999999998,
        39.8333782
      ],
      [
        2.8131837000000006,
        39.8329525
      ],
      [
        2.8133639,
        39.8328583
      ],
      [
        2.8134928999999995,
        39.83274980000001
      ],
      [
        2.8136603,
        39.8325262
      ],
      [
        2.8138213000000003,
        39.832125899999994
      ],
      [
        2.8138793000000004,
        39.83185939999999
      ],
      [
        2.813867,
        39.83177190000001
      ],
      [
        2.8137994,
        39.831676599999994
      ],
      [
        2.8137298000000004,
        39.83164839999999
      ],
      [
        2.8136401,
        39.83165379999999
      ],
      [
        2.8133707,
        39.8318177
      ],
      [
        2.8130875,
        39.8319002
      ],
      [
        2.8128532,
        39.83193359999999
      ],
      [
        2.8124688,
        39.8319589
      ],
      [
        2.8123991999999998,
        39.8319857
      ],
      [
        2.8123662,
        39.83205509999999
      ],
      [
        2.8123847,
        39.83210369999999
      ],
      [
        2.8124399,
        39.8321456
      ],
      [
        2.8125274,
        39.8321619
      ],
      [
        2.8127746000000005,
        39.83212269999999
      ],
      [
        2.8128765,
        39.8321356
      ],
      [
        2.8129461000000004,
        39.8321731
      ],
      [
        2.8130087,
        39.83227730000001
      ],
      [
        2.8129917999999994,
        39.8324337
      ],
      [
        2.8129079999999997,
        39.83258179999999
      ],
      [
        2.8128515,
        39.83262700000001
      ],
      [
        2.8127405,
        39.832681199999996
      ],
      [
        2.8126077999999994,
        39.8326852
      ],
      [
        2.8125037000000006,
        39.832638900000006
      ],
      [
        2.8121787000000005,
        39.8323669
      ],
      [
        2.8120413000000006,
        39.83229450000001
      ],
      [
        2.8115631999999997,
        39.83219350000001
      ],
      [
        2.8110717,
        39.83214
      ],
      [
        2.8109268,
        39.832105199999994
      ],
      [
        2.8108603000000003,
        39.83205
      ],
      [
        2.8108044,
        39.83196269999999
      ],
      [
        2.8105167,
        39.8312788
      ],
      [
        2.810327,
        39.8310646
      ],
      [
        2.8101957,
        39.8309613
      ],
      [
        2.8100953,
        39.830912600000005
      ],
      [
        2.8099979,
        39.830891400000006
      ],
      [
        2.8098795,
        39.8308888
      ],
      [
        2.8095639,
        39.830916299999984
      ],
      [
        2.8085365,
        39.830754199999994
      ],
      [
        2.8082065,
        39.8306649
      ],
      [
        2.8078115,
        39.830506000000014
      ],
      [
        2.8073702,
        39.830430299999996
      ],
      [
        2.8072671000000002,
        39.830451299999986
      ],
      [
        2.8072474999999995,
        39.83049199999999
      ],
      [
        2.807289,
        39.83054639999999
      ],
      [
        2.8078209000000003,
        39.830649
      ],
      [
        2.8082955000000003,
        39.8308079
      ],
      [
        2.8083429,
        39.83084470000001
      ],
      [
        2.8083502,
        39.830886299999996
      ],
      [
        2.8083214,
        39.8309179
      ],
      [
        2.8082581,
        39.83092539999999
      ],
      [
        2.8080184,
        39.8308338
      ],
      [
        2.8079065,
        39.830806800000005
      ],
      [
        2.8076128,
        39.8307668
      ],
      [
        2.8072124,
        39.83074369999999
      ],
      [
        2.8070184,
        39.83071499999999
      ],
      [
        2.8065425,
        39.8305895
      ],
      [
        2.8063283,
        39.83049340000001
      ],
      [
        2.8062285,
        39.8304887
      ],
      [
        2.8061895,
        39.83054
      ],
      [
        2.8062359,
        39.8306084
      ],
      [
        2.8067222000000003,
        39.830794
      ],
      [
        2.8068186,
        39.8308547
      ],
      [
        2.8068373,
        39.8309186
      ],
      [
        2.8067899,
        39.83098700000001
      ],
      [
        2.806693,
        39.83100840000001
      ],
      [
        2.8065922999999997,
        39.8309952
      ],
      [
        2.8062713,
        39.83091499999999
      ],
      [
        2.8061474999999994,
        39.83085770000001
      ],
      [
        2.8060714999999994,
        39.8307583
      ],
      [
        2.805956,
        39.8305343
      ],
      [
        2.8058813,
        39.83045179999999
      ],
      [
        2.8053013,
        39.830026799999985
      ],
      [
        2.8051682000000002,
        39.8299465
      ],
      [
        2.8031109,
        39.8292185
      ],
      [
        2.8030519999999997,
        39.82921360000001
      ],
      [
        2.8029987999999997,
        39.829229000000005
      ],
      [
        2.8029717,
        39.82928749999999
      ],
      [
        2.8030067,
        39.8293403
      ],
      [
        2.8033018,
        39.829416499999994
      ],
      [
        2.8044681999999996,
        39.829908599999996
      ],
      [
        2.8046074,
        39.829984899999985
      ],
      [
        2.8047391,
        39.83011119999999
      ],
      [
        2.8051674,
        39.8306256
      ],
      [
        2.8052056000000003,
        39.8306854
      ],
      [
        2.8052230999999996,
        39.83076309999999
      ],
      [
        2.8051919,
        39.830882100000004
      ],
      [
        2.8051367000000003,
        39.830943
      ],
      [
        2.8050546000000005,
        39.8309892
      ],
      [
        2.8048667999999997,
        39.831038099999994
      ],
      [
        2.8044946000000004,
        39.831064399999995
      ],
      [
        2.8043808,
        39.83110919999999
      ],
      [
        2.8043378999999997,
        39.83115790000001
      ],
      [
        2.8041584000000004,
        39.831511500000005
      ],
      [
        2.8040894000000005,
        39.83169360000001
      ],
      [
        2.8038052,
        39.832911800000005
      ],
      [
        2.8038637000000004,
        39.833168699999995
      ],
      [
        2.8041613,
        39.83355840000001
      ],
      [
        2.804211,
        39.833657599999995
      ],
      [
        2.8041871,
        39.8338236
      ],
      [
        2.8040949,
        39.8340139
      ],
      [
        2.8040057999999997,
        39.83410260000001
      ],
      [
        2.8039389,
        39.83414450000001
      ],
      [
        2.8037569,
        39.8342142
      ],
      [
        2.8036332,
        39.8342472
      ],
      [
        2.8030089,
        39.83434770000001
      ],
      [
        2.802935,
        39.8343647
      ],
      [
        2.8028402,
        39.8344241
      ],
      [
        2.8028097,
        39.83446239999999
      ],
      [
        2.8025459999999995,
        39.835091299999995
      ],
      [
        2.8025562000000006,
        39.8354121
      ],
      [
        2.8025863000000006,
        39.835504099999994
      ],
      [
        2.8027203999999997,
        39.8356305
      ],
      [
        2.8028541,
        39.8356874
      ],
      [
        2.8032768,
        39.835754800000004
      ],
      [
        2.8034005000000004,
        39.8357492
      ],
      [
        2.8034658999999995,
        39.8357284
      ],
      [
        2.8040683000000004,
        39.835158499999984
      ],
      [
        2.8043751000000006,
        39.834671799999995
      ],
      [
        2.8044395,
        39.8346148
      ],
      [
        2.8045458000000005,
        39.83455659999999
      ],
      [
        2.8061219,
        39.8338875
      ],
      [
        2.8062777,
        39.833867099999985
      ],
      [
        2.8064204999999998,
        39.833912500000004
      ],
      [
        2.8065202,
        39.83401039999998
      ],
      [
        2.8066575,
        39.83426529999999
      ],
      [
        2.8067754000000003,
        39.834522
      ],
      [
        2.8068183000000007,
        39.834694099999986
      ],
      [
        2.8065605,
        39.83639839999999
      ],
      [
        2.8065704,
        39.836557099999986
      ],
      [
        2.8066732000000005,
        39.837106399999996
      ],
      [
        2.8066646,
        39.8372237
      ],
      [
        2.8066141,
        39.8373439
      ],
      [
        2.806335,
        39.83772799999999
      ],
      [
        2.8059628999999995,
        39.8386007
      ],
      [
        2.8056572000000006,
        39.83905219999999
      ],
      [
        2.8055895999999994,
        39.8392238
      ],
      [
        2.8053375,
        39.840346100000005
      ],
      [
        2.8053454,
        39.840503799999986
      ],
      [
        2.80541,
        39.8407416
      ],
      [
        2.8054293000000006,
        39.840916199999995
      ],
      [
        2.8053981,
        39.8411673
      ],
      [
        2.8053607000000005,
        39.84127029999999
      ],
      [
        2.8049742,
        39.8420004
      ],
      [
        2.8048344,
        39.8421585
      ],
      [
        2.8046786,
        39.8423015
      ],
      [
        2.8039747000000004,
        39.84283369999999
      ],
      [
        2.8039180000000004,
        39.842907
      ],
      [
        2.8036527,
        39.8434178
      ],
      [
        2.8036634999999994,
        39.84351799999999
      ],
      [
        2.8037283,
        39.8435786
      ],
      [
        2.8038384999999995,
        39.843608999999994
      ],
      [
        2.8040545,
        39.84362960000001
      ],
      [
        2.8042101,
        39.8436711
      ],
      [
        2.8043156000000002,
        39.84376009999999
      ],
      [
        2.8043796000000003,
        39.84391060000001
      ],
      [
        2.8044356,
        39.8442363
      ],
      [
        2.8045015,
        39.844897599999996
      ],
      [
        2.8044943,
        39.8449882
      ],
      [
        2.8044718999999994,
        39.84507279999998
      ],
      [
        2.8044160999999996,
        39.8451611
      ],
      [
        2.8043514999999997,
        39.84522449999999
      ],
      [
        2.8042009,
        39.84531319999999
      ],
      [
        2.8041138,
        39.84534159999998
      ],
      [
        2.8040087,
        39.845351199999996
      ],
      [
        2.8030724,
        39.845308
      ],
      [
        2.8029006000000005,
        39.845315799999995
      ],
      [
        2.8027321,
        39.84536
      ],
      [
        2.8024295,
        39.8455643
      ],
      [
        2.8023003,
        39.8456301
      ],
      [
        2.8022203000000006,
        39.8456516
      ],
      [
        2.8019729,
        39.845662
      ],
      [
        2.8017081,
        39.8456281
      ],
      [
        2.801489,
        39.845566899999994
      ],
      [
        2.8004526999999997,
        39.8451447
      ],
      [
        2.8002804,
        39.844992700000006
      ],
      [
        2.8002129999999994,
        39.844959200000005
      ],
      [
        2.800121,
        39.8449654
      ],
      [
        2.8000488000000003,
        39.84500979999999
      ],
      [
        2.8000262,
        39.8450486
      ],
      [
        2.8000339,
        39.84513249999999
      ],
      [
        2.8001326999999994,
        39.8452658
      ],
      [
        2.800165,
        39.8453436
      ],
      [
        2.8001324999999997,
        39.845416
      ],
      [
        2.8000867,
        39.84543999999999
      ],
      [
        2.799991,
        39.8454491
      ],
      [
        2.7998987,
        39.84541099999999
      ],
      [
        2.7997405000000004,
        39.845294700000004
      ],
      [
        2.7995930000000007,
        39.8451226
      ],
      [
        2.7994939999999997,
        39.84496180000001
      ],
      [
        2.7993961000000005,
        39.84451539999999
      ],
      [
        2.7992938,
        39.8442275
      ],
      [
        2.7992405,
        39.8441344
      ],
      [
        2.7991900000000003,
        39.8440933
      ],
      [
        2.7989172999999994,
        39.84375769999998
      ],
      [
        2.7988242000000003,
        39.8435069
      ],
      [
        2.7987859,
        39.84331739999999
      ],
      [
        2.7987783000000004,
        39.8432114
      ],
      [
        2.7988405000000003,
        39.842752700000005
      ],
      [
        2.7987607,
        39.8422798
      ],
      [
        2.7987709,
        39.8421713
      ],
      [
        2.7988315,
        39.84194159999999
      ],
      [
        2.7988016999999994,
        39.84115949999999
      ],
      [
        2.798829,
        39.8410362
      ],
      [
        2.7989264,
        39.8408411
      ],
      [
        2.7989593,
        39.840725199999994
      ],
      [
        2.7989800000000002,
        39.840429099999994
      ],
      [
        2.7991143,
        39.83953520000001
      ],
      [
        2.7991593,
        39.8389754
      ],
      [
        2.7991432,
        39.83881839999999
      ],
      [
        2.7990103,
        39.83825709999999
      ],
      [
        2.7989413,
        39.8381141
      ],
      [
        2.7988896,
        39.838061599999996
      ],
      [
        2.7988074,
        39.838025099999996
      ],
      [
        2.7985394999999995,
        39.8379771
      ],
      [
        2.7983608999999996,
        39.837979499999996
      ],
      [
        2.7982214000000005,
        39.8380048
      ],
      [
        2.7980971,
        39.83806319999999
      ],
      [
        2.7978653999999996,
        39.83825760000001
      ],
      [
        2.79758,
        39.8383519
      ],
      [
        2.7973985,
        39.8384345
      ],
      [
        2.7972622000000005,
        39.83853010000001
      ],
      [
        2.7969087,
        39.83887799999999
      ],
      [
        2.7966829000000004,
        39.83918189999999
      ],
      [
        2.7962547,
        39.839676100000005
      ],
      [
        2.7958032,
        39.8399201
      ],
      [
        2.7956874000000003,
        39.840028
      ],
      [
        2.7954963000000004,
        39.840280500000006
      ],
      [
        2.7954348,
        39.8404227
      ],
      [
        2.7954354,
        39.8408529
      ],
      [
        2.7953517,
        39.8412267
      ],
      [
        2.7952922000000004,
        39.8414055
      ],
      [
        2.7952704999999995,
        39.8415312
      ],
      [
        2.7952758,
        39.8416922
      ],
      [
        2.7953298,
        39.841994500000006
      ],
      [
        2.7953303,
        39.84216789999999
      ],
      [
        2.7953732,
        39.8423365
      ],
      [
        2.7954839,
        39.84244369999999
      ],
      [
        2.7956445,
        39.84252889999999
      ],
      [
        2.7957677,
        39.8426151
      ],
      [
        2.7958404,
        39.84272599999999
      ],
      [
        2.7958496,
        39.84282439999999
      ],
      [
        2.7958309000000003,
        39.8428583
      ],
      [
        2.7957454000000004,
        39.842903099999994
      ],
      [
        2.7954175000000006,
        39.842985500000005
      ],
      [
        2.7953711,
        39.843016299999995
      ],
      [
        2.7953070999999996,
        39.8431012
      ],
      [
        2.7952688000000006,
        39.8432288
      ],
      [
        2.7952651000000004,
        39.84332700000001
      ],
      [
        2.7953289999999997,
        39.8438945
      ],
      [
        2.7953004,
        39.8440179
      ],
      [
        2.7952157,
        39.8441254
      ],
      [
        2.7950415,
        39.8442337
      ],
      [
        2.7949471,
        39.844271899999995
      ],
      [
        2.7942138,
        39.8444414
      ],
      [
        2.7940734,
        39.8445227
      ],
      [
        2.7940412,
        39.8445999
      ],
      [
        2.7940909000000005,
        39.8446832
      ],
      [
        2.7941639,
        39.8447261
      ],
      [
        2.7946973000000006,
        39.8448684
      ],
      [
        2.7953651999999996,
        39.845093
      ],
      [
        2.7956714,
        39.8451496
      ],
      [
        2.7963044,
        39.8452232
      ],
      [
        2.7964393000000003,
        39.84526170000001
      ],
      [
        2.7966052,
        39.84535850000002
      ],
      [
        2.7967812,
        39.84552129999999
      ],
      [
        2.7969503,
        39.8457901
      ],
      [
        2.7970021,
        39.8459369
      ],
      [
        2.7970517000000004,
        39.8463476
      ],
      [
        2.7970980999999995,
        39.8465652
      ],
      [
        2.7971592,
        39.84674959999999
      ],
      [
        2.7972444,
        39.84691320000001
      ],
      [
        2.7974018,
        39.847085099999994
      ],
      [
        2.7977411000000005,
        39.84738329999999
      ],
      [
        2.7979717,
        39.84762519999999
      ]
    ]
  }
}